STARLINK-3515           
1 51738U 22016AA  26062.21212497 -.00001416  00000+0 -70886-4 0  9995
2 51738  53.2190 348.1951 0001444  97.0083 263.1074 15.08834486222586
STARLINK-3516           
1 51739U 22016AB  26062.15692665 -.00000622  00000+0 -20981-4 0  9997
2 51739  53.2200 348.4478 0001483  80.4297 279.6863 15.08831792222576
STARLINK-3500           
1 51740U 22016AC  26062.20476419 -.00001724  00000+0 -90249-4 0  9990
2 51740  53.2186 348.2309 0001294  88.9554 271.1586 15.08845599222581
STARLINK-3520           
1 51741U 22016AD  26062.61420446 -.00000757  00000+0 -29515-4 0  9998
2 51741  53.2189 346.4037 0001271  96.6371 263.4766 15.08827951222644
STARLINK-3521           
1 51742U 22016AE  26062.08702886 -.00000358  00000+0 -44168-5 0  9990
2 51742  53.2197 348.9550 0001287  99.6519 260.4618 15.08832690222565
STARLINK-3512           
1 51743U 22016AF  26062.15414693 -.00000076  00000+0  13301-4 0  9995
2 51743  53.2197 338.3831 0001312  94.8349 265.2793 15.08847954222711
STARLINK-3452           
1 51744U 22016AG  26062.06491970  .00001424  00000+0  10752-3 0  9992
2 51744  53.2189 348.8890 0001557 111.2677 248.8482 15.08843426222568
STARLINK-3449           
1 51745U 22016AH  26062.20843478 -.00000081  00000+0  12975-4 0  9992
2 51745  53.2194 348.2146 0001451 108.0590 252.0560 15.08840042222581
STARLINK-3502           
1 51746U 22016AJ  26062.02632272 -.00000038  00000+0  15700-4 0  9992
2 51746  53.2197 339.0468 0001408  81.8192 278.2960 15.08834677222691
STARLINK-3446           
1 51747U 22016AK  26062.20203839 -.00002078  00000+0 -11248-3 0  9995
2 51747  53.2191 348.2922 0001178 107.8981 252.2140 15.08854785222584
STARLINK-3501           
1 51748U 22016AL  26062.15048300  .00000500  00000+0  49529-4 0  9990
2 51748  53.2194 338.4780 0001368  91.0413 269.0736 15.08840750222715
STARLINK-3451           
1 51749U 22016AM  26062.17902501 -.00000054  00000+0  14694-4 0  9995
2 51749  53.2199 348.5306 0001357  88.4350 271.6798 15.08837642222572
STARLINK-3505           
1 51750U 22016AN  26062.07784142 -.00000545  00000+0 -16177-4 0  9999
2 51750  53.2205 338.8148 0001350  85.5386 274.5760 15.08839499222706
STARLINK-3506           
1 51751U 22016AP  26062.15511607  .00002935  00000+0  20236-3 0  9996
2 51751  53.2198 338.4657 0001311  90.7938 269.3205 15.08846639222718
STARLINK-3511           
1 51752U 22016AQ  26062.13303288  .00001047  00000+0  83864-4 0  9999
2 51752  53.2194 338.4887 0001334 100.5298 259.5845 15.08837985222719
STARLINK-3507           
1 51753U 22016AR  26062.14776509 -.00000154  00000+0  84109-5 0  9994
2 51753  53.2195 338.4989 0001463  84.2051 275.9108 15.08834586222710
