[{"OBJECT_NAME":"STARLINK-3515","OBJECT_ID":"2022-016AA","EPOCH":"2026-03-03T05:05:27.597408","MEAN_MOTION":15.08834486,"ECCENTRICITY":0.00014445,"INCLINATION":53.219,"RA_OF_ASC_NODE":348.1951,"ARG_OF_PERICENTER":97.0083,"MEAN_ANOMALY":263.1074,"EPHEMERIS_TYPE":0,"CLASSIFICATION_TYPE":"U","NORAD_CAT_ID":51738,"ELEMENT_SET_NO":999,"REV_AT_EPOCH":22258,"BSTAR":-7.0886315e-5,"MEAN_MOTION_DOT":-1.416e-5,"MEAN_MOTION_DDOT":0},{"OBJECT_NAME":"STARLINK-3516","OBJECT_ID":"2022-016AB","EPOCH":"2026-03-03T03:45:58.462560","MEAN_MOTION":15.08831792,"ECCENTRICITY":0.00014834,"INCLINATION":53.22,"RA_OF_ASC_NODE":348.4478,"ARG_OF_PERICENTER":80.4297,"MEAN_ANOMALY":279.6863,"EPHEMERIS_TYPE":0,"CLASSIFICATION_TYPE":"U","NORAD_CAT_ID":51739,"ELEMENT_SET_NO":999,"REV_AT_EPOCH":22257,"BSTAR":-2.0980852e-5,"MEAN_MOTION_DOT":-6.22e-6,"MEAN_MOTION_DDOT":0},{"OBJECT_NAME":"STARLINK-3500","OBJECT_ID":"2022-016AC","EPOCH":"2026-03-03T04:54:51.626016","MEAN_MOTION":15.08845599,"ECCENTRICITY":0.00012942,"INCLINATION":53.2186,"RA_OF_ASC_NODE":348.2309,"ARG_OF_PERICENTER":88.9554,"MEAN_ANOMALY":271.1586,"EPHEMERIS_TYPE":0,"CLASSIFICATION_TYPE":"U","NORAD_CAT_ID":51740,"ELEMENT_SET_NO":999,"REV_AT_EPOCH":22258,"BSTAR":-9.0249285e-5,"MEAN_MOTION_DOT":-1.724e-5,"MEAN_MOTION_DDOT":0},{"OBJECT_NAME":"STARLINK-3520","OBJECT_ID":"2022-016AD","EPOCH":"2026-03-03T14:44:27.265344","MEAN_MOTION":15.08827951,"ECCENTRICITY":0.0001271,"INCLINATION":53.2189,"RA_OF_ASC_NODE":346.4037,"ARG_OF_PERICENTER":96.6371,"MEAN_ANOMALY":263.4766,"EPHEMERIS_TYPE":0,"CLASSIFICATION_TYPE":"U","NORAD_CAT_ID":51741,"ELEMENT_SET_NO":999,"REV_AT_EPOCH":22264,"BSTAR":-2.9514986e-5,"MEAN_MOTION_DOT":-7.57e-6,"MEAN_MOTION_DDOT":0},{"OBJECT_NAME":"STARLINK-3521","OBJECT_ID":"2022-016AE","EPOCH":"2026-03-03T02:05:19.293504","MEAN_MOTION":15.0883269,"ECCENTRICITY":0.00012876,"INCLINATION":53.2197,"RA_OF_ASC_NODE":348.955,"ARG_OF_PERICENTER":99.6519,"MEAN_ANOMALY":260.4618,"EPHEMERIS_TYPE":0,"CLASSIFICATION_TYPE":"U","NORAD_CAT_ID":51742,"ELEMENT_SET_NO":999,"REV_AT_EPOCH":22256,"BSTAR":-4.416813e-6,"MEAN_MOTION_DOT":-3.58e-6,"MEAN_MOTION_DDOT":0},{"OBJECT_NAME":"STARLINK-3512","OBJECT_ID":"2022-016AF","EPOCH":"2026-03-03T03:41:58.294752","MEAN_MOTION":15.08847954,"ECCENTRICITY":0.00013122,"INCLINATION":53.2197,"RA_OF_ASC_NODE":338.3831,"ARG_OF_PERICENTER":94.8349,"MEAN_ANOMALY":265.2793,"EPHEMERIS_TYPE":0,"CLASSIFICATION_TYPE":"U","NORAD_CAT_ID":51743,"ELEMENT_SET_NO":999,"REV_AT_EPOCH":22271,"BSTAR":1.330073e-5,"MEAN_MOTION_DOT":-7.6e-7,"MEAN_MOTION_DDOT":0},{"OBJECT_NAME":"STARLINK-3452","OBJECT_ID":"2022-016AG","EPOCH":"2026-03-03T01:33:29.062080","MEAN_MOTION":15.08843426,"ECCENTRICITY":0.00015576,"INCLINATION":53.2189,"RA_OF_ASC_NODE":348.889,"ARG_OF_PERICENTER":111.2677,"MEAN_ANOMALY":248.8482,"EPHEMERIS_TYPE":0,"CLASSIFICATION_TYPE":"U","NORAD_CAT_ID":51744,"ELEMENT_SET_NO":999,"REV_AT_EPOCH":22256,"BSTAR":0.00010752311,"MEAN_MOTION_DOT":1.424e-5,"MEAN_MOTION_DDOT":0},{"OBJECT_NAME":"STARLINK-3449","OBJECT_ID":"2022-016AH","EPOCH":"2026-03-03T05:00:08.764992","MEAN_MOTION":15.08840042,"ECCENTRICITY":0.0001451,"INCLINATION":53.2194,"RA_OF_ASC_NODE":348.2146,"ARG_OF_PERICENTER":108.059,"MEAN_ANOMALY":252.056,"EPHEMERIS_TYPE":0,"CLASSIFICATION_TYPE":"U","NORAD_CAT_ID":51745,"ELEMENT_SET_NO":999,"REV_AT_EPOCH":22258,"BSTAR":1.2975111e-5,"MEAN_MOTION_DOT":-8.1e-7,"MEAN_MOTION_DDOT":0},{"OBJECT_NAME":"STARLINK-3502","OBJECT_ID":"2022-016AJ","EPOCH":"2026-03-03T00:37:54.283008","MEAN_MOTION":15.08834677,"ECCENTRICITY":0.00014081,"INCLINATION":53.2197,"RA_OF_ASC_NODE":339.0468,"ARG_OF_PERICENTER":81.8192,"MEAN_ANOMALY":278.296,"EPHEMERIS_TYPE":0,"CLASSIFICATION_TYPE":"U","NORAD_CAT_ID":51746,"ELEMENT_SET_NO":999,"REV_AT_EPOCH":22269,"BSTAR":1.5700437e-5,"MEAN_MOTION_DOT":-3.8e-7,"MEAN_MOTION_DDOT":0},{"OBJECT_NAME":"STARLINK-3446","OBJECT_ID":"2022-016AK","EPOCH":"2026-03-03T04:50:56.116896","MEAN_MOTION":15.08854785,"ECCENTRICITY":0.00011788,"INCLINATION":53.2191,"RA_OF_ASC_NODE":348.2922,"ARG_OF_PERICENTER":107.8981,"MEAN_ANOMALY":252.214,"EPHEMERIS_TYPE":0,"CLASSIFICATION_TYPE":"U","NORAD_CAT_ID":51747,"ELEMENT_SET_NO":999,"REV_AT_EPOCH":22258,"BSTAR":-0.00011248152,"MEAN_MOTION_DOT":-2.078e-5,"MEAN_MOTION_DDOT":0},{"OBJECT_NAME":"STARLINK-3501","OBJECT_ID":"2022-016AL","EPOCH":"2026-03-03T03:36:41.731200","MEAN_MOTION":15.0884075,"ECCENTRICITY":0.00013688,"INCLINATION":53.2194,"RA_OF_ASC_NODE":338.478,"ARG_OF_PERICENTER":91.0413,"MEAN_ANOMALY":269.0736,"EPHEMERIS_TYPE":0,"CLASSIFICATION_TYPE":"U","NORAD_CAT_ID":51748,"ELEMENT_SET_NO":999,"REV_AT_EPOCH":22271,"BSTAR":4.9528784e-5,"MEAN_MOTION_DOT":5.0e-6,"MEAN_MOTION_DDOT":0},{"OBJECT_NAME":"STARLINK-3451","OBJECT_ID":"2022-016AM","EPOCH":"2026-03-03T04:17:47.760864","MEAN_MOTION":15.08837642,"ECCENTRICITY":0.00013578,"INCLINATION":53.2199,"RA_OF_ASC_NODE":348.5306,"ARG_OF_PERICENTER":88.435,"MEAN_ANOMALY":271.6798,"EPHEMERIS_TYPE":0,"CLASSIFICATION_TYPE":"U","NORAD_CAT_ID":51749,"ELEMENT_SET_NO":999,"REV_AT_EPOCH":22257,"BSTAR":1.46936e-5,"MEAN_MOTION_DOT":-5.4e-7,"MEAN_MOTION_DDOT":0},{"OBJECT_NAME":"STARLINK-3505","OBJECT_ID":"2022-016AN","EPOCH":"2026-03-03T01:52:05.498688","MEAN_MOTION":15.08839499,"ECCENTRICITY":0.000135,"INCLINATION":53.2205,"RA_OF_ASC_NODE":338.8148,"ARG_OF_PERICENTER":85.5386,"MEAN_ANOMALY":274.576,"EPHEMERIS_TYPE":0,"CLASSIFICATION_TYPE":"U","NORAD_CAT_ID":51750,"ELEMENT_SET_NO":999,"REV_AT_EPOCH":22270,"BSTAR":-1.6177218e-5,"MEAN_MOTION_DOT":-5.45e-6,"MEAN_MOTION_DDOT":0},{"OBJECT_NAME":"STARLINK-3506","OBJECT_ID":"2022-016AP","EPOCH":"2026-03-03T03:43:22.028448","MEAN_MOTION":15.08846639,"ECCENTRICITY":0.00013113,"INCLINATION":53.2198,"RA_OF_ASC_NODE":338.4657,"ARG_OF_PERICENTER":90.7938,"MEAN_ANOMALY":269.3205,"EPHEMERIS_TYPE":0,"CLASSIFICATION_TYPE":"U","NORAD_CAT_ID":51751,"ELEMENT_SET_NO":999,"REV_AT_EPOCH":22271,"BSTAR":0.00020236111,"MEAN_MOTION_DOT":2.935e-5,"MEAN_MOTION_DDOT":0},{"OBJECT_NAME":"STARLINK-3511","OBJECT_ID":"2022-016AQ","EPOCH":"2026-03-03T03:11:34.040832","MEAN_MOTION":15.08837985,"ECCENTRICITY":0.00013345,"INCLINATION":53.2194,"RA_OF_ASC_NODE":338.4887,"ARG_OF_PERICENTER":100.5298,"MEAN_ANOMALY":259.5845,"EPHEMERIS_TYPE":0,"CLASSIFICATION_TYPE":"U","NORAD_CAT_ID":51752,"ELEMENT_SET_NO":999,"REV_AT_EPOCH":22271,"BSTAR":8.3864266e-5,"MEAN_MOTION_DOT":1.047e-5,"MEAN_MOTION_DDOT":0},{"OBJECT_NAME":"STARLINK-3507","OBJECT_ID":"2022-016AR","EPOCH":"2026-03-03T03:32:46.903776","MEAN_MOTION":15.08834586,"ECCENTRICITY":0.00014631,"INCLINATION":53.2195,"RA_OF_ASC_NODE":338.4989,"ARG_OF_PERICENTER":84.2051,"MEAN_ANOMALY":275.9108,"EPHEMERIS_TYPE":0,"CLASSIFICATION_TYPE":"U","NORAD_CAT_ID":51753,"ELEMENT_SET_NO":999,"REV_AT_EPOCH":22271,"BSTAR":8.410863e-6,"MEAN_MOTION_DOT":-1.54e-6,"MEAN_MOTION_DDOT":0}]
